LYNK TOWER 6            
1 59123U 24043AB  26068.89488777  .00011440  00000+0  40142-3 0  9996
2 59123  97.5426 204.1954 0009749 232.0253 128.0107 15.29548678111845
STARLINK-31779          
1 59744U 24090Q   26067.38922977  .00000515  00000+0  28248-4 0  9990
2 59744  43.0036 190.6375 0001686 284.6515  75.4150 15.27581796103243
